[{"IntermediaryNumber":49,"AgencyId":"CL-62","Name":"Agency-Dach, Brown and Weissnat","AddressLIne1":"869 Beahan Stream\nEast Jakobberg, NC 82289-8533","AddressLIne2":"Suite 068","City":"Hettingerside","PostCode":"38817-5252"},{"IntermediaryNumber":48,"AgencyId":"CL-75","Name":"Agency-Corkery and Sons","AddressLIne1":"87506 Aracely Center Suite 187\nWest Hailey, CT 91141-4290","AddressLIne2":"Apt. 732","City":"Lake Ericka","PostCode":"42413"},{"IntermediaryNumber":23,"AgencyId":"CL-5","Name":"Agency-Zemlak Inc","AddressLIne1":"635 Oberbrunner Parks\nAlffort, RI 25106-9772","AddressLIne2":"Apt. 987","City":"Nikkiview","PostCode":"33274-7252"},{"IntermediaryNumber":1,"AgencyId":"CL-80","Name":"Agency-Mills Group","AddressLIne1":"7918 Chadrick Isle\nEast Elliot, AZ 62802","AddressLIne2":"Suite 336","City":"Ovaside","PostCode":"30878-5474"},{"IntermediaryNumber":40,"AgencyId":"CL-41","Name":"Agency-Kulas, Stark and Harber","AddressLIne1":"162 Lang Lane Suite 633\nNew Lailamouth, HI 04619","AddressLIne2":"Apt. 117","City":"West Arvel","PostCode":"25812-3098"},{"IntermediaryNumber":17,"AgencyId":"CL-66","Name":"Agency-Hettinger, Armstrong and Thiel","AddressLIne1":"859 Kassulke Wall Apt. 013\nPort Johnpaulburgh, NH 93001-7296","AddressLIne2":"Apt. 618","City":"South Florencioshire","PostCode":"38420"},{"IntermediaryNumber":38,"AgencyId":"CL-53","Name":"Agency-Collier LLC","AddressLIne1":"9079 Schmeler Shore\nTadmouth, DE 92803-9501","AddressLIne2":"Apt. 161","City":"Dillanhaven","PostCode":"10745-9454"},{"IntermediaryNumber":47,"AgencyId":"CL-25","Name":"Agency-Legros PLC","AddressLIne1":"475 Prosacco Estates Apt. 618\nMcCluremouth, PA 16315-4000","AddressLIne2":"Suite 378","City":"Pfannerstillmouth","PostCode":"28947"},{"IntermediaryNumber":20,"AgencyId":"CL-21","Name":"Agency-Flatley, Lemke and Koch","AddressLIne1":"1788 Bonnie Mews\nJonathanport, NJ 88623","AddressLIne2":"Suite 221","City":"New Dedricport","PostCode":"51300"},{"IntermediaryNumber":15,"AgencyId":"CL-79","Name":"Agency-Christiansen PLC","AddressLIne1":"077 Labadie Oval Suite 419\nPort Royhaven, UT 01916-2988","AddressLIne2":"Suite 063","City":"Zakaryview","PostCode":"20790-7887"},{"IntermediaryNumber":5,"AgencyId":"CL-48","Name":"Agency-Sipes-Stracke","AddressLIne1":"0201 Ernser Unions\nWest Major, NM 33623-1607","AddressLIne2":"Apt. 690","City":"Port Ayden","PostCode":"69212"},{"IntermediaryNumber":42,"AgencyId":"CL-12","Name":"Agency-Cartwright-Runte","AddressLIne1":"6626 Littel Common Apt. 979\nGeorgetown, AR 83340-9489","AddressLIne2":"Suite 817","City":"Ratkeborough","PostCode":"17798-7523"},{"IntermediaryNumber":30,"AgencyId":"CL-46","Name":"Agency-Lemke, Weissnat and Bauch","AddressLIne1":"518 Jeanie Streets\nNew Vitotown, HI 28277-2521","AddressLIne2":"Apt. 863","City":"New Griffinchester","PostCode":"69689-1508"},{"IntermediaryNumber":51,"AgencyId":"CL-56","Name":"Agency-Kertzmann, Luettgen and Runolfsdottir","AddressLIne1":"81491 Conn Ville Apt. 077\nLittleside, IL 76242-7618","AddressLIne2":"Apt. 535","City":"Wisokyborough","PostCode":"15683-7340"},{"IntermediaryNumber":6,"AgencyId":"CL-64","Name":"Agency-Runolfsdottir-Bruen","AddressLIne1":"6082 Kim Neck Apt. 263\nMcGlynnhaven, AL 53703-1901","AddressLIne2":"Apt. 841","City":"Parkerport","PostCode":"38154-5654"},{"IntermediaryNumber":13,"AgencyId":"CL-89","Name":"Agency-Willms, Mills and Kunde","AddressLIne1":"289 Rogahn Harbors\nLake Filibertofort, VT 16787-9656","AddressLIne2":"Apt. 257","City":"South Zita","PostCode":"79678"},{"IntermediaryNumber":44,"AgencyId":"CL-9","Name":"Agency-Rutherford-Erdman","AddressLIne1":"38248 Marlee Meadows Suite 464\nLake Cloydland, WI 75740-8158","AddressLIne2":"Suite 915","City":"South Roryland","PostCode":"76966"},{"IntermediaryNumber":50,"AgencyId":"CL-36","Name":"Agency-Toy, Bernhard and Harvey","AddressLIne1":"81892 Zion Ramp\nSouth Sammy, MS 50109-7334","AddressLIne2":"Apt. 579","City":"McDermottland","PostCode":"20391"},{"IntermediaryNumber":3,"AgencyId":"CL-38","Name":"Agency-Legros, Goyette and Marks","AddressLIne1":"12115 Mike Harbors\nFeeneyshire, NV 42905","AddressLIne2":"Apt. 477","City":"Royalview","PostCode":"68414-2746"},{"IntermediaryNumber":52,"AgencyId":"CL-39","Name":"Agency-Lesch, Kshlerin and Koss","AddressLIne1":"5724 Maggie Trail Apt. 290\nKuhnmouth, DE 10936","AddressLIne2":"Suite 262","City":"Rueckertown","PostCode":"83931"},{"IntermediaryNumber":26,"AgencyId":"CL-98","Name":"Agency-Pagac, Romaguera and Brown","AddressLIne1":"811 Braun Pines Apt. 370\nNew Schuylermouth, DC 75594","AddressLIne2":"Suite 126","City":"East Emieside","PostCode":"27374-9082"},{"IntermediaryNumber":21,"AgencyId":"CL-77","Name":"Agency-Rohan-Torp","AddressLIne1":"94877 Pollich Islands\nPort Cletabury, WI 74875","AddressLIne2":"Apt. 853","City":"Sidneyborough","PostCode":"23596"},{"IntermediaryNumber":43,"AgencyId":"CL-47","Name":"Agency-Langosh PLC","AddressLIne1":"29127 Kirlin Glens Suite 129\nHarberton, WA 02903-4982","AddressLIne2":"Apt. 130","City":"New Lorna","PostCode":"54600-3096"},{"IntermediaryNumber":54,"AgencyId":"CL-58","Name":"Agency-Moen-Johnson","AddressLIne1":"6921 Rylee Viaduct\nNew Ambrose, CT 56044","AddressLIne2":"Apt. 245","City":"Yundtside","PostCode":"42625-7995"},{"IntermediaryNumber":14,"AgencyId":"CL-42","Name":"Agency-Gibson Group","AddressLIne1":"7393 Kari Ridges\nOswaldoton, NM 96809","AddressLIne2":"Apt. 596","City":"Melvinmouth","PostCode":"31843"},{"IntermediaryNumber":33,"AgencyId":"CL-20","Name":"Agency-Feeney and Sons","AddressLIne1":"937 Frami Squares Suite 840\nNorth Vickie, UT 27001","AddressLIne2":"Suite 886","City":"Lake Rayborough","PostCode":"22344"},{"IntermediaryNumber":37,"AgencyId":"CL-35","Name":"Agency-Kozey Group","AddressLIne1":"8905 Mills Locks\nWildermanville, VA 51405","AddressLIne2":"Suite 423","City":"South Eileen","PostCode":"14021-9761"},{"IntermediaryNumber":31,"AgencyId":"CL-23","Name":"Agency-Quitzon PLC","AddressLIne1":"11033 Grimes Lodge Suite 326\nLowehaven, MN 05418-0420","AddressLIne2":"Apt. 293","City":"Margarettefort","PostCode":"61834-6933"},{"IntermediaryNumber":36,"AgencyId":"CL-87","Name":"Agency-Hayes-Strosin","AddressLIne1":"206 Fritsch Oval Suite 073\nAdolfmouth, NV 18637","AddressLIne2":"Apt. 714","City":"East Aileen","PostCode":"90535-5270"},{"IntermediaryNumber":10,"AgencyId":"CL-45","Name":"Agency-Mohr Ltd","AddressLIne1":"71992 Amaya Square\nWest Maximomouth, OH 47198","AddressLIne2":"Suite 058","City":"Ernserfurt","PostCode":"01044"},{"IntermediaryNumber":41,"AgencyId":"CL-72","Name":"Agency-Lockman, Rath and Klein","AddressLIne1":"329 Elliot Gardens\nPaulineburgh, IL 54535-4683","AddressLIne2":"Suite 957","City":"Cathyview","PostCode":"24309-3533"},{"IntermediaryNumber":4,"AgencyId":"CL-57","Name":"Agency-Lind-Bernhard","AddressLIne1":"4737 Witting Mews\nSouth Logan, WI 99465","AddressLIne2":"Apt. 541","City":"East Columbus","PostCode":"09161"},{"IntermediaryNumber":24,"AgencyId":"CL-91","Name":"Agency-Conroy and Sons","AddressLIne1":"922 Mosciski Valleys\nStarkton, SD 74449","AddressLIne2":"Apt. 887","City":"Lake Paul","PostCode":"51469-7250"},{"IntermediaryNumber":39,"AgencyId":"CL-17","Name":"Agency-Adams, Dach and Hermann","AddressLIne1":"3130 Moshe Ridge\nLake River, SC 28722-5090","AddressLIne2":"Apt. 120","City":"Torpburgh","PostCode":"76673-2381"},{"IntermediaryNumber":53,"AgencyId":"CL-3","Name":"Agency-Collins-Braun","AddressLIne1":"55471 Pollich Forges Apt. 282\nPort Camilachester, NC 14522","AddressLIne2":"Apt. 555","City":"Hermistonborough","PostCode":"69600-8107"},{"IntermediaryNumber":22,"AgencyId":"CL-59","Name":"Agency-Nader, Barton and Heller","AddressLIne1":"842 Skye Bridge\nNew Joany, NC 73628-7103","AddressLIne2":"Apt. 975","City":"New Dollymouth","PostCode":"61038-0510"},{"IntermediaryNumber":18,"AgencyId":"CL-18","Name":"Agency-Marks Inc","AddressLIne1":"87350 Herzog Forest\nSouth Monserrateview, IA 33793","AddressLIne2":"Suite 955","City":"Mullerville","PostCode":"98093-1673"},{"IntermediaryNumber":2,"AgencyId":"CL-8","Name":"Agency-Hilpert-Spinka","AddressLIne1":"16842 Heaney Path\nWest Neil, AZ 27558","AddressLIne2":"Apt. 158","City":"New Macy","PostCode":"95818"},{"IntermediaryNumber":12,"AgencyId":"CL-88","Name":"Agency-Stoltenberg-O'Connell","AddressLIne1":"5650 Graham Key Suite 216\nNew Lilianborough, RI 06439-1696","AddressLIne2":"Apt. 760","City":"East Feltontown","PostCode":"75987"},{"IntermediaryNumber":7,"AgencyId":"CL-1","Name":"Agency-O'Keefe Ltd","AddressLIne1":"23719 Annamarie Street Apt. 453\nPort Nevaside, WI 41728","AddressLIne2":"Apt. 552","City":"New Calihaven","PostCode":"19249"},{"IntermediaryNumber":9,"AgencyId":"CL-76","Name":"Agency-Medhurst-Larson","AddressLIne1":"217 Dell Ville Suite 950\nSebastianmouth, NJ 96577","AddressLIne2":"Suite 772","City":"Rippinview","PostCode":"26124-7707"},{"IntermediaryNumber":19,"AgencyId":"CL-24","Name":"Agency-Hodkiewicz-McGlynn","AddressLIne1":"6110 Dedrick Hill\nSouth Vivienview, GA 32385-2774","AddressLIne2":"Suite 634","City":"South Evangelinebury","PostCode":"54115"},{"IntermediaryNumber":34,"AgencyId":"CL-60","Name":"Agency-Dietrich, Altenwerth and Kessler","AddressLIne1":"797 Nikolas Course Suite 400\nElvieside, UT 39069-6975","AddressLIne2":"Suite 893","City":"Schambergerville","PostCode":"24984-0795"},{"IntermediaryNumber":16,"AgencyId":"CL-84","Name":"Agency-Stokes, White and Barrows","AddressLIne1":"1000 Berneice Gateway\nKaelynberg, FL 68303","AddressLIne2":"Suite 608","City":"East Graciela","PostCode":"37286-8505"},{"IntermediaryNumber":25,"AgencyId":"CL-26","Name":"Agency-Russel, Purdy and Jacobi","AddressLIne1":"5800 Krystal Dam\nLexusview, OH 02491","AddressLIne2":"Apt. 441","City":"Emieton","PostCode":"70981"},{"IntermediaryNumber":55,"AgencyId":"CL-49","Name":"Agency-Nitzsche Ltd","AddressLIne1":"4658 Damien Circle Apt. 087\nElmerstad, MS 57456","AddressLIne2":"Suite 713","City":"Teaganfurt","PostCode":"86354-3868"},{"IntermediaryNumber":32,"AgencyId":"CL-28","Name":"Agency-Lemke, Hermiston and Russel","AddressLIne1":"53921 Valentine Rest\nGerryhaven, CT 03418-9961","AddressLIne2":"Suite 101","City":"East Oletaburgh","PostCode":"92304-2376"},{"IntermediaryNumber":28,"AgencyId":"CL-85","Name":"Agency-Heller, Goyette and Kris","AddressLIne1":"516 Reynolds Circle\nWest Alicia, SC 44868-9435","AddressLIne2":"Apt. 111","City":"Port Maudemouth","PostCode":"02429-8522"},{"IntermediaryNumber":29,"AgencyId":"CL-67","Name":"Agency-Schinner Group","AddressLIne1":"58331 Lisette Station Suite 206\nPort Russ, AL 74987-7562","AddressLIne2":"Apt. 365","City":"Rozellashire","PostCode":"30986"},{"IntermediaryNumber":46,"AgencyId":"CL-4","Name":"Agency-Stiedemann-Vandervort","AddressLIne1":"50504 Clyde Loop Suite 581\nGreenfelderland, WY 38501-8243","AddressLIne2":"Suite 224","City":"Hoegerhaven","PostCode":"83885"},{"IntermediaryNumber":35,"AgencyId":"CL-16","Name":"Agency-Mante-Cole","AddressLIne1":"8379 Koch Rapid\nNolanfort, OK 88844-1642","AddressLIne2":"Suite 044","City":"Corkeryfort","PostCode":"10876-0564"},{"IntermediaryNumber":27,"AgencyId":"CL-82","Name":"Agency-Schumm, Hickle and Rutherford","AddressLIne1":"171 Jules Flat Apt. 990\nWest Nova, MI 69836","AddressLIne2":"Suite 282","City":"Jacintobury","PostCode":"58975"},{"IntermediaryNumber":11,"AgencyId":"CL-13","Name":"Agency-Weber PLC","AddressLIne1":"9871 Koelpin Spurs Apt. 315\nErnserbury, DE 70508-3255","AddressLIne2":"Apt. 776","City":"Gottliebmouth","PostCode":"82809"},{"IntermediaryNumber":8,"AgencyId":"CL-86","Name":"Agency-Tremblay-Strosin","AddressLIne1":"33607 Brayan Coves\nCatalinaland, WI 43382","AddressLIne2":"Suite 401","City":"Mantefurt","PostCode":"06262-4924"}]
